0 COSMOS 2251 DEB
1 37315U 93036BKF 13267.38867849  .00001075  00000-0  37184-3 0   521
2 37315 074.0310 165.7888 0019934 268.0620 091.8250 14.36851214192797
